[{"OBJECT_NAME":"CUTE-1.7+APD II (CO-65)","OBJECT_ID":"2008-021C","EPOCH":"2026-03-02T21:07:51.599712","MEAN_MOTION":15.08251734,"ECCENTRICITY":0.0010318,"INCLINATION":97.8192,"RA_OF_ASC_NODE":41.2304,"ARG_OF_PERICENTER":39.48,"MEAN_ANOMALY":320.7177,"EPHEMERIS_TYPE":0,"CLASSIFICATION_TYPE":"U","NORAD_CAT_ID":32785,"ELEMENT_SET_NO":999,"REV_AT_EPOCH":96916,"BSTAR":0.00058977,"MEAN_MOTION_DOT":9.086e-5,"MEAN_MOTION_DDOT":0},{"OBJECT_NAME":"SEEDS II (CO-66)","OBJECT_ID":"2008-021J","EPOCH":"2026-03-02T12:36:38.136096","MEAN_MOTION":15.28701509,"ECCENTRICITY":0.000273,"INCLINATION":97.7503,"RA_OF_ASC_NODE":54.6595,"ARG_OF_PERICENTER":20.6846,"MEAN_ANOMALY":339.4503,"EPHEMERIS_TYPE":0,"CLASSIFICATION_TYPE":"U","NORAD_CAT_ID":32791,"ELEMENT_SET_NO":999,"REV_AT_EPOCH":97097,"BSTAR":0.00082362,"MEAN_MOTION_DOT":0.00022953,"MEAN_MOTION_DDOT":0},{"OBJECT_NAME":"YUBILEINY (RS30)","OBJECT_ID":"2008-025A","EPOCH":"2026-03-02T18:52:50.938752","MEAN_MOTION":12.43175874,"ECCENTRICITY":0.0019265,"INCLINATION":82.4985,"RA_OF_ASC_NODE":61.6189,"ARG_OF_PERICENTER":180.2952,"MEAN_ANOMALY":179.812,"EPHEMERIS_TYPE":0,"CLASSIFICATION_TYPE":"U","NORAD_CAT_ID":32953,"ELEMENT_SET_NO":999,"REV_AT_EPOCH":80647,"BSTAR":0.00028259,"MEAN_MOTION_DOT":4.9e-7,"MEAN_MOTION_DDOT":0},{"OBJECT_NAME":"KKS-1 (KISEKI)","OBJECT_ID":"2009-002H","EPOCH":"2026-03-02T18:49:24.374496","MEAN_MOTION":14.82796561,"ECCENTRICITY":0.0006471,"INCLINATION":98.119,"RA_OF_ASC_NODE":342.5747,"ARG_OF_PERICENTER":278.2947,"MEAN_ANOMALY":81.7532,"EPHEMERIS_TYPE":0,"CLASSIFICATION_TYPE":"U","NORAD_CAT_ID":33499,"ELEMENT_SET_NO":999,"REV_AT_EPOCH":92042,"BSTAR":0.0002901,"MEAN_MOTION_DOT":2.291e-5,"MEAN_MOTION_DDOT":0},{"OBJECT_NAME":"SWISSCUBE","OBJECT_ID":"2009-051B","EPOCH":"2026-03-02T16:52:27.942816","MEAN_MOTION":14.62235995,"ECCENTRICITY":0.0006594,"INCLINATION":98.4106,"RA_OF_ASC_NODE":327.722,"ARG_OF_PERICENTER":173.5794,"MEAN_ANOMALY":186.5492,"EPHEMERIS_TYPE":0,"CLASSIFICATION_TYPE":"U","NORAD_CAT_ID":35932,"ELEMENT_SET_NO":999,"REV_AT_EPOCH":87359,"BSTAR":0.00031106,"MEAN_MOTION_DOT":1.519e-5,"MEAN_MOTION_DDOT":0},{"OBJECT_NAME":"BEESAT-1","OBJECT_ID":"2009-051C","EPOCH":"2026-03-02T17:26:39.028704","MEAN_MOTION":14.61513291,"ECCENTRICITY":0.0004825,"INCLINATION":98.4036,"RA_OF_ASC_NODE":327.6002,"ARG_OF_PERICENTER":184.8887,"MEAN_ANOMALY":175.2267,"EPHEMERIS_TYPE":0,"CLASSIFICATION_TYPE":"U","NORAD_CAT_ID":35933,"ELEMENT_SET_NO":999,"REV_AT_EPOCH":87363,"BSTAR":0.00026627,"MEAN_MOTION_DOT":1.272e-5,"MEAN_MOTION_DDOT":0},{"OBJECT_NAME":"ITUPSAT1","OBJECT_ID":"2009-051E","EPOCH":"2026-03-02T16:38:44.376288","MEAN_MOTION":14.60249665,"ECCENTRICITY":0.0006783,"INCLINATION":98.4125,"RA_OF_ASC_NODE":326.868,"ARG_OF_PERICENTER":200.9387,"MEAN_ANOMALY":159.1536,"EPHEMERIS_TYPE":0,"CLASSIFICATION_TYPE":"U","NORAD_CAT_ID":35935,"ELEMENT_SET_NO":999,"REV_AT_EPOCH":87319,"BSTAR":0.00024857,"MEAN_MOTION_DOT":1.151e-5,"MEAN_MOTION_DDOT":0},{"OBJECT_NAME":"XIWANG-1 (HOPE-1)","OBJECT_ID":"2009-072B","EPOCH":"2026-03-02T20:16:52.281120","MEAN_MOTION":13.16436857,"ECCENTRICITY":0.0008017,"INCLINATION":100.3897,"RA_OF_ASC_NODE":17.4359,"ARG_OF_PERICENTER":114.0765,"MEAN_ANOMALY":246.1188,"EPHEMERIS_TYPE":0,"CLASSIFICATION_TYPE":"U","NORAD_CAT_ID":36122,"ELEMENT_SET_NO":999,"REV_AT_EPOCH":77901,"BSTAR":0.0010129,"MEAN_MOTION_DOT":3.43e-6,"MEAN_MOTION_DDOT":0},{"OBJECT_NAME":"O/OREOS (USA 219)","OBJECT_ID":"2010-062C","EPOCH":"2026-03-02T18:21:00.055872","MEAN_MOTION":14.93235206,"ECCENTRICITY":0.0016915,"INCLINATION":71.9727,"RA_OF_ASC_NODE":321.3167,"ARG_OF_PERICENTER":268.281,"MEAN_ANOMALY":91.6422,"EPHEMERIS_TYPE":0,"CLASSIFICATION_TYPE":"U","NORAD_CAT_ID":37224,"ELEMENT_SET_NO":999,"REV_AT_EPOCH":10075,"BSTAR":0.00030397,"MEAN_MOTION_DOT":3.127e-5,"MEAN_MOTION_DDOT":0},{"OBJECT_NAME":"JUGNU","OBJECT_ID":"2011-058B","EPOCH":"2026-03-02T19:16:44.957568","MEAN_MOTION":14.13737032,"ECCENTRICITY":0.0018632,"INCLINATION":19.9596,"RA_OF_ASC_NODE":234.7346,"ARG_OF_PERICENTER":341.6497,"MEAN_ANOMALY":143.8293,"EPHEMERIS_TYPE":0,"CLASSIFICATION_TYPE":"U","NORAD_CAT_ID":37839,"ELEMENT_SET_NO":999,"REV_AT_EPOCH":74395,"BSTAR":0.00012266,"MEAN_MOTION_DOT":5.02e-6,"MEAN_MOTION_DDOT":0},{"OBJECT_NAME":"SRMSAT","OBJECT_ID":"2011-058D","EPOCH":"2026-03-02T12:01:09.925248","MEAN_MOTION":14.11544423,"ECCENTRICITY":0.0011888,"INCLINATION":19.9732,"RA_OF_ASC_NODE":345.2138,"ARG_OF_PERICENTER":110.4701,"MEAN_ANOMALY":67.1482,"EPHEMERIS_TYPE":0,"CLASSIFICATION_TYPE":"U","NORAD_CAT_ID":37841,"ELEMENT_SET_NO":999,"REV_AT_EPOCH":74272,"BSTAR":0.00011390903,"MEAN_MOTION_DOT":4.75e-6,"MEAN_MOTION_DDOT":0},{"OBJECT_NAME":"STRAND-1","OBJECT_ID":"2013-009E","EPOCH":"2026-03-02T11:06:07.129728","MEAN_MOTION":14.370872,"ECCENTRICITY":0.00086048,"INCLINATION":98.388,"RA_OF_ASC_NODE":244.3341,"ARG_OF_PERICENTER":182.8724,"MEAN_ANOMALY":177.2415,"EPHEMERIS_TYPE":0,"CLASSIFICATION_TYPE":"U","NORAD_CAT_ID":39090,"ELEMENT_SET_NO":999,"REV_AT_EPOCH":68173,"BSTAR":0.00017107477,"MEAN_MOTION_DOT":4.65e-6,"MEAN_MOTION_DDOT":0},{"OBJECT_NAME":"ZACUBE-1 (TSHEPISOSAT)","OBJECT_ID":"2013-066B","EPOCH":"2026-03-02T20:39:01.797408","MEAN_MOTION":15.00236927,"ECCENTRICITY":0.0041555,"INCLINATION":97.8182,"RA_OF_ASC_NODE":23.6506,"ARG_OF_PERICENTER":243.0931,"MEAN_ANOMALY":116.6044,"EPHEMERIS_TYPE":0,"CLASSIFICATION_TYPE":"U","NORAD_CAT_ID":39417,"ELEMENT_SET_NO":999,"REV_AT_EPOCH":66478,"BSTAR":0.0004838,"MEAN_MOTION_DOT":6.102e-5,"MEAN_MOTION_DDOT":0},{"OBJECT_NAME":"GOMX-1","OBJECT_ID":"2013-066Q","EPOCH":"2026-03-02T19:25:38.264160","MEAN_MOTION":14.69065451,"ECCENTRICITY":0.0130659,"INCLINATION":97.6574,"RA_OF_ASC_NODE":268.9434,"ARG_OF_PERICENTER":59.4061,"MEAN_ANOMALY":301.9958,"EPHEMERIS_TYPE":0,"CLASSIFICATION_TYPE":"U","NORAD_CAT_ID":39430,"ELEMENT_SET_NO":999,"REV_AT_EPOCH":65429,"BSTAR":0.00034024,"MEAN_MOTION_DOT":2.226e-5,"MEAN_MOTION_DDOT":0},{"OBJECT_NAME":"CUBEBUG-2 (LO-74)","OBJECT_ID":"2013-066AA","EPOCH":"2026-03-02T20:40:03.777312","MEAN_MOTION":14.9284801,"ECCENTRICITY":0.0059455,"INCLINATION":97.8806,"RA_OF_ASC_NODE":10.5236,"ARG_OF_PERICENTER":21.5397,"MEAN_ANOMALY":338.8304,"EPHEMERIS_TYPE":0,"CLASSIFICATION_TYPE":"U","NORAD_CAT_ID":39440,"ELEMENT_SET_NO":999,"REV_AT_EPOCH":66112,"BSTAR":0.00072433,"MEAN_MOTION_DOT":7.706e-5,"MEAN_MOTION_DDOT":0},{"OBJECT_NAME":"FUNCUBE-1 (AO-73)","OBJECT_ID":"2013-066AE","EPOCH":"2026-03-02T19:20:16.195200","MEAN_MOTION":15.07748353,"ECCENTRICITY":0.0036526,"INCLINATION":97.8166,"RA_OF_ASC_NODE":31.2276,"ARG_OF_PERICENTER":203.0732,"MEAN_ANOMALY":156.8857,"EPHEMERIS_TYPE":0,"CLASSIFICATION_TYPE":"U","NORAD_CAT_ID":39444,"ELEMENT_SET_NO":999,"REV_AT_EPOCH":66362,"BSTAR":0.00068338,"MEAN_MOTION_DOT":0.00010543,"MEAN_MOTION_DDOT":0},{"OBJECT_NAME":"UWE-3","OBJECT_ID":"2013-066AG","EPOCH":"2026-03-02T18:34:49.392192","MEAN_MOTION":14.96081032,"ECCENTRICITY":0.0048822,"INCLINATION":97.8592,"RA_OF_ASC_NODE":17.2799,"ARG_OF_PERICENTER":316.3479,"MEAN_ANOMALY":43.3885,"EPHEMERIS_TYPE":0,"CLASSIFICATION_TYPE":"U","NORAD_CAT_ID":39446,"ELEMENT_SET_NO":999,"REV_AT_EPOCH":66166,"BSTAR":0.00057209,"MEAN_MOTION_DOT":6.526e-5,"MEAN_MOTION_DDOT":0}]
