CUTE-1.7+APD II (CO-65) 
1 32785U 08021C   26061.88045833  .00009086  00000+0  58977-3 0  9991
2 32785  97.8192  41.2304 0010318  39.4800 320.7177 15.08251734969168
SEEDS II (CO-66)        
1 32791U 08021J   26061.52544139  .00022953  00000+0  82362-3 0  9995
2 32791  97.7503  54.6595 0002730  20.6846 339.4503 15.28701509970974
YUBILEINY (RS30)        
1 32953U 08025A   26061.78670068  .00000049  00000+0  28259-3 0  9995
2 32953  82.4985  61.6189 0019265 180.2952 179.8120 12.43175874806476
KKS-1 (KISEKI)          
1 33499U 09002H   26061.78430989  .00002291  00000+0  29010-3 0  9990
2 33499  98.1190 342.5747 0006471 278.2947  81.7532 14.82796561920429
SWISSCUBE               
1 35932U 09051B   26061.70310119  .00001519  00000+0  31106-3 0  9993
2 35932  98.4106 327.7220 0006594 173.5794 186.5492 14.62235995873598
BEESAT-1                
1 35933U 09051C   26061.72684061  .00001272  00000+0  26627-3 0  9994
2 35933  98.4036 327.6002 0004825 184.8887 175.2267 14.61513291873638
ITUPSAT1                
1 35935U 09051E   26061.69356917  .00001151  00000+0  24857-3 0  9997
2 35935  98.4125 326.8680 0006783 200.9387 159.1536 14.60249665873193
XIWANG-1 (HOPE-1)       
1 36122U 09072B   26061.84504955  .00000343  00000+0  10129-2 0  9991
2 36122 100.3897  17.4359 0008017 114.0765 246.1188 13.16436857779011
O/OREOS (USA 219)       
1 37224U 10062C   26061.76458398  .00003127  00000+0  30397-3 0  9999
2 37224  71.9727 321.3167 0016915 268.2810  91.6422 14.93235206100757
JUGNU                   
1 37839U 11058B   26061.80329812  .00000502  00000+0  12266-3 0  9999
2 37839  19.9596 234.7346 0018632 341.6497 143.8293 14.13737032743953
SRMSAT                  
1 37841U 11058D   26061.50080932  .00000475  00000+0  11391-3 0  9993
2 37841  19.9732 345.2138 0011888 110.4701  67.1482 14.11544423742721
STRAND-1                
1 39090U 13009E   26061.46258252  .00000465  00000+0  17107-3 0  9996
2 39090  98.3880 244.3341 0008604 182.8724 177.2415 14.37087200681734
ZACUBE-1 (TSHEPISOSAT)  
1 39417U 13066B   26061.86043747  .00006102  00000+0  48380-3 0  9998
2 39417  97.8182  23.6506 0041555 243.0931 116.6044 15.00236927664783
GOMX-1                  
1 39430U 13066Q   26061.80947065  .00002226  00000+0  34024-3 0  9996
2 39430  97.6574 268.9434 0130659  59.4061 301.9958 14.69065451654296
CUBEBUG-2 (LO-74)       
1 39440U 13066AA  26061.86115483  .00007706  00000+0  72433-3 0  9998
2 39440  97.8806  10.5236 0059455  21.5397 338.8304 14.92848010661124
FUNCUBE-1 (AO-73)       
1 39444U 13066AE  26061.80574300  .00010543  00000+0  68338-3 0  9995
2 39444  97.8166  31.2276 0036526 203.0732 156.8857 15.07748353663629
UWE-3                   
1 39446U 13066AG  26061.77418278  .00006526  00000+0  57209-3 0  9995
2 39446  97.8592  17.2799 0048822 316.3479  43.3885 14.96081032661660
